CCSDS_OMM_VERS = 2.0
CREATION_DATE  = 
ORIGINATOR     = 

OBJECT_NAME    = ATLAS CENTAUR R/B
OBJECT_ID      = 1972-065B
CENTER_NAME    = EARTH
REF_FRAME      = TEME
TIME_SYSTEM    = UTC
MEAN_ELEMENT_THEORY = SGP/SGP4

EPOCH          = 2026-03-18T19:33:29.942496
MEAN_MOTION    = 14.77712248
ECCENTRICITY   = .00328757
INCLINATION    = 35.0007
RA_OF_ASC_NODE = 252.2751
ARG_OF_PERICENTER = 86.6997
MEAN_ANOMALY   = 273.7464

EPHEMERIS_TYPE = 0
CLASSIFICATION_TYPE = U
NORAD_CAT_ID   = 6155
ELEMENT_SET_NO = 999
REV_AT_EPOCH   = 84261
BSTAR          = .16005118E-3
MEAN_MOTION_DOT = .1151E-4
MEAN_MOTION_DDOT = 0

CCSDS_OMM_VERS = 2.0
CREATION_DATE  = 
ORIGINATOR     = 

OBJECT_NAME    = SL-8 R/B
OBJECT_ID      = 1975-112B
CENTER_NAME    = EARTH
REF_FRAME      = TEME
TIME_SYSTEM    = UTC
MEAN_ELEMENT_THEORY = SGP/SGP4

EPOCH          = 2026-03-18T23:06:54.211680
MEAN_MOTION    = 14.38209097
ECCENTRICITY   = .00144366
INCLINATION    = 74.0637
RA_OF_ASC_NODE = 1.8545
ARG_OF_PERICENTER = 91.2057
MEAN_ANOMALY   = 269.0751

EPHEMERIS_TYPE = 0
CLASSIFICATION_TYPE = U
NORAD_CAT_ID   = 8459
ELEMENT_SET_NO = 999
REV_AT_EPOCH   = 63320
BSTAR          = .79220293E-4
MEAN_MOTION_DOT = .215E-5
MEAN_MOTION_DDOT = 0

CCSDS_OMM_VERS = 2.0
CREATION_DATE  = 
ORIGINATOR     = 

OBJECT_NAME    = SL-3 R/B
OBJECT_ID      = 1977-057B
CENTER_NAME    = EARTH
REF_FRAME      = TEME
TIME_SYSTEM    = UTC
MEAN_ELEMENT_THEORY = SGP/SGP4

EPOCH          = 2026-03-18T21:53:29.194944
MEAN_MOTION    = 15.45753269
ECCENTRICITY   = .0006227
INCLINATION    = 97.5778
RA_OF_ASC_NODE = 250.2417
ARG_OF_PERICENTER = 245.6631
MEAN_ANOMALY   = 114.3968

EPHEMERIS_TYPE = 0
CLASSIFICATION_TYPE = U
NORAD_CAT_ID   = 10114
ELEMENT_SET_NO = 999
REV_AT_EPOCH   = 66975
BSTAR          = .24104103E-3
MEAN_MOTION_DOT = .11575E-3
MEAN_MOTION_DDOT = 0

CCSDS_OMM_VERS = 2.0
CREATION_DATE  = 
ORIGINATOR     = 

OBJECT_NAME    = SEASAT 1
OBJECT_ID      = 1978-064A
CENTER_NAME    = EARTH
REF_FRAME      = TEME
TIME_SYSTEM    = UTC
MEAN_ELEMENT_THEORY = SGP/SGP4

EPOCH          = 2026-03-18T21:41:03.419520
MEAN_MOTION    = 14.46167672
ECCENTRICITY   = .00024611
INCLINATION    = 108.0091
RA_OF_ASC_NODE = 144.8334
ARG_OF_PERICENTER = 281.8052
MEAN_ANOMALY   = 78.2818

EPHEMERIS_TYPE = 0
CLASSIFICATION_TYPE = U
NORAD_CAT_ID   = 10967
ELEMENT_SET_NO = 999
REV_AT_EPOCH   = 50784
BSTAR          = .95660381E-4
MEAN_MOTION_DOT = .205E-5
MEAN_MOTION_DDOT = 0

CCSDS_OMM_VERS = 2.0
CREATION_DATE  = 
ORIGINATOR     = 

OBJECT_NAME    = SL-14 R/B
OBJECT_ID      = 1979-011B
CENTER_NAME    = EARTH
REF_FRAME      = TEME
TIME_SYSTEM    = UTC
MEAN_ELEMENT_THEORY = SGP/SGP4

EPOCH          = 2026-03-18T23:17:08.049984
MEAN_MOTION    = 14.91919538
ECCENTRICITY   = .00168314
INCLINATION    = 82.5203
RA_OF_ASC_NODE = 87.7617
ARG_OF_PERICENTER = 31.5905
MEAN_ANOMALY   = 328.6321

EPHEMERIS_TYPE = 0
CLASSIFICATION_TYPE = U
NORAD_CAT_ID   = 11267
ELEMENT_SET_NO = 999
REV_AT_EPOCH   = 53016
BSTAR          = .50640831E-4
MEAN_MOTION_DOT = .539E-5
MEAN_MOTION_DDOT = 0

CCSDS_OMM_VERS = 2.0
CREATION_DATE  = 
ORIGINATOR     = 

OBJECT_NAME    = SL-8 R/B
OBJECT_ID      = 1979-089B
CENTER_NAME    = EARTH
REF_FRAME      = TEME
TIME_SYSTEM    = UTC
MEAN_ELEMENT_THEORY = SGP/SGP4

EPOCH          = 2026-03-18T23:17:12.845184
MEAN_MOTION    = 14.42356682
ECCENTRICITY   = .00170349
INCLINATION    = 74.0670
RA_OF_ASC_NODE = 73.8620
ARG_OF_PERICENTER = 245.4827
MEAN_ANOMALY   = 114.4554

EPHEMERIS_TYPE = 0
CLASSIFICATION_TYPE = U
NORAD_CAT_ID   = 11574
ELEMENT_SET_NO = 999
REV_AT_EPOCH   = 43744
BSTAR          = .78134084E-4
MEAN_MOTION_DOT = .232E-5
MEAN_MOTION_DDOT = 0

CCSDS_OMM_VERS = 2.0
CREATION_DATE  = 
ORIGINATOR     = 

OBJECT_NAME    = SL-14 R/B
OBJECT_ID      = 1980-005B
CENTER_NAME    = EARTH
REF_FRAME      = TEME
TIME_SYSTEM    = UTC
MEAN_ELEMENT_THEORY = SGP/SGP4

EPOCH          = 2026-03-18T20:31:24.097728
MEAN_MOTION    = 14.90940451
ECCENTRICITY   = .00168797
INCLINATION    = 82.5128
RA_OF_ASC_NODE = 298.5412
ARG_OF_PERICENTER = 129.3621
MEAN_ANOMALY   = 230.9097

EPHEMERIS_TYPE = 0
CLASSIFICATION_TYPE = U
NORAD_CAT_ID   = 11672
ELEMENT_SET_NO = 999
REV_AT_EPOCH   = 47785
BSTAR          = .48490195E-4
MEAN_MOTION_DOT = .505E-5
MEAN_MOTION_DDOT = 0

CCSDS_OMM_VERS = 2.0
CREATION_DATE  = 
ORIGINATOR     = 

OBJECT_NAME    = SL-8 R/B
OBJECT_ID      = 1981-003B
CENTER_NAME    = EARTH
REF_FRAME      = TEME
TIME_SYSTEM    = UTC
MEAN_ELEMENT_THEORY = SGP/SGP4

EPOCH          = 2026-03-18T19:23:11.210496
MEAN_MOTION    = 15.11354405
ECCENTRICITY   = .02614506
INCLINATION    = 82.9361
RA_OF_ASC_NODE = 281.5913
ARG_OF_PERICENTER = 146.8588
MEAN_ANOMALY   = 214.9338

EPHEMERIS_TYPE = 0
CLASSIFICATION_TYPE = U
NORAD_CAT_ID   = 12139
ELEMENT_SET_NO = 999
REV_AT_EPOCH   = 31605
BSTAR          = .4984736E-3
MEAN_MOTION_DOT = .19637E-3
MEAN_MOTION_DDOT = 0

CCSDS_OMM_VERS = 2.0
CREATION_DATE  = 
ORIGINATOR     = 

OBJECT_NAME    = SL-3 R/B
OBJECT_ID      = 1981-046B
CENTER_NAME    = EARTH
REF_FRAME      = TEME
TIME_SYSTEM    = UTC
MEAN_ELEMENT_THEORY = SGP/SGP4

EPOCH          = 2026-03-18T22:24:09.882144
MEAN_MOTION    = 15.42218997
ECCENTRICITY   = .0018819
INCLINATION    = 81.2280
RA_OF_ASC_NODE = 278.6413
ARG_OF_PERICENTER = 350.1231
MEAN_ANOMALY   = 9.9639

EPHEMERIS_TYPE = 0
CLASSIFICATION_TYPE = U
NORAD_CAT_ID   = 12465
ELEMENT_SET_NO = 999
REV_AT_EPOCH   = 43985
BSTAR          = .20964498E-3
MEAN_MOTION_DOT = .9088E-4
MEAN_MOTION_DDOT = 0

CCSDS_OMM_VERS = 2.0
CREATION_DATE  = 
ORIGINATOR     = 

OBJECT_NAME    = SL-3 R/B
OBJECT_ID      = 1981-103B
CENTER_NAME    = EARTH
REF_FRAME      = TEME
TIME_SYSTEM    = UTC
MEAN_ELEMENT_THEORY = SGP/SGP4

EPOCH          = 2026-03-18T21:56:11.157792
MEAN_MOTION    = 15.21485561
ECCENTRICITY   = .00124329
INCLINATION    = 81.1602
RA_OF_ASC_NODE = 202.6114
ARG_OF_PERICENTER = 253.6087
MEAN_ANOMALY   = 106.3778

EPHEMERIS_TYPE = 0
CLASSIFICATION_TYPE = U
NORAD_CAT_ID   = 12904
ELEMENT_SET_NO = 999
REV_AT_EPOCH   = 97463
BSTAR          = .1920703E-3
MEAN_MOTION_DOT = .4352E-4
MEAN_MOTION_DDOT = 0

CCSDS_OMM_VERS = 2.0
CREATION_DATE  = 
ORIGINATOR     = 

OBJECT_NAME    = SL-3 R/B
OBJECT_ID      = 1982-013B
CENTER_NAME    = EARTH
REF_FRAME      = TEME
TIME_SYSTEM    = UTC
MEAN_ELEMENT_THEORY = SGP/SGP4

EPOCH          = 2026-03-18T22:02:22.076448
MEAN_MOTION    = 15.22103409
ECCENTRICITY   = .00231446
INCLINATION    = 81.1754
RA_OF_ASC_NODE = 149.9550
ARG_OF_PERICENTER = 146.7794
MEAN_ANOMALY   = 213.4897

EPHEMERIS_TYPE = 0
CLASSIFICATION_TYPE = U
NORAD_CAT_ID   = 13068
ELEMENT_SET_NO = 999
REV_AT_EPOCH   = 40575
BSTAR          = .14675336E-3
MEAN_MOTION_DOT = .3411E-4
MEAN_MOTION_DDOT = 0

CCSDS_OMM_VERS = 2.0
CREATION_DATE  = 
ORIGINATOR     = 

OBJECT_NAME    = SL-3 R/B
OBJECT_ID      = 1982-039B
CENTER_NAME    = EARTH
REF_FRAME      = TEME
TIME_SYSTEM    = UTC
MEAN_ELEMENT_THEORY = SGP/SGP4

EPOCH          = 2026-03-18T22:23:56.599008
MEAN_MOTION    = 15.10132626
ECCENTRICITY   = .00292728
INCLINATION    = 81.1579
RA_OF_ASC_NODE = 205.3043
ARG_OF_PERICENTER = 294.1468
MEAN_ANOMALY   = 65.6696

EPHEMERIS_TYPE = 0
CLASSIFICATION_TYPE = U
NORAD_CAT_ID   = 13154
ELEMENT_SET_NO = 999
REV_AT_EPOCH   = 38303
BSTAR          = .12745488E-3
MEAN_MOTION_DOT = .2121E-4
MEAN_MOTION_DDOT = 0

