ATLAS CENTAUR R/B       
1 06155U 72065B   26077.81492989  .00001151  00000+0  16005-3 0  9991
2 06155  35.0007 252.2751 0032875  86.6997 273.7464 14.77712248842615
SL-8 R/B                
1 08459U 75112B   26077.96312745  .00000215  00000+0  79220-4 0  9992
2 08459  74.0637   1.8545 0014436  91.2057 269.0751 14.38209097633207
SL-3 R/B                
1 10114U 77057B   26077.91214346  .00011575  00000+0  24104-3 0  9997
2 10114  97.5778 250.2417 0006227 245.6631 114.3968 15.45753269669759
SEASAT 1                
1 10967U 78064A   26077.90351180  .00000205  00000+0  95660-4 0  9993
2 10967 108.0091 144.8334 0002461 281.8052  78.2818 14.46167672507842
SL-14 R/B               
1 11267U 79011B   26077.97023206  .00000539  00000+0  50641-4 0  9992
2 11267  82.5203  87.7617 0016831  31.5905 328.6321 14.91919538530167
SL-8 R/B                
1 11574U 79089B   26077.97028756  .00000232  00000+0  78134-4 0  9990
2 11574  74.0670  73.8620 0017034 245.4827 114.4554 14.42356682437444
SL-14 R/B               
1 11672U 80005B   26077.85514002  .00000505  00000+0  48490-4 0  9995
2 11672  82.5128 298.5412 0016879 129.3621 230.9097 14.90940451477859
SL-8 R/B                
1 12139U 81003B   26077.80776864  .00019637  00000+0  49847-3 0  9996
2 12139  82.9361 281.5913 0261450 146.8588 214.9338 15.11354405316058
SL-3 R/B                
1 12465U 81046B   26077.93344771  .00009088  00000+0  20964-3 0  9995
2 12465  81.2280 278.6413 0018819 350.1231   9.9639 15.42218997439857
SL-3 R/B                
1 12904U 81103B   26077.91401803  .00004352  00000+0  19207-3 0  9992
2 12904  81.1602 202.6114 0012432 253.6087 106.3778 15.21485561974634
SL-3 R/B                
1 13068U 82013B   26077.91831107  .00003411  00000+0  14675-3 0  9998
2 13068  81.1754 149.9550 0023144 146.7794 213.4897 15.22103409405753
SL-3 R/B                
1 13154U 82039B   26077.93329397  .00002121  00000+0  12745-3 0  9990
2 13154  81.1579 205.3043 0029272 294.1468  65.6696 15.10132626383032
